METOP-C                 
1 43689U 18087A   26062.41602543  .00000147  00000+0  86979-4 0  9999
2 43689  98.6779 123.8951 0002161 108.6534 251.4878 14.21494528379806
GEO-KOMPSAT-2A          
1 43823U 18100A   26061.97008322 -.00000360  00000+0  00000+0 0  9994
2 43823   0.0202  70.0220 0001474 329.8478 238.3430  1.00272120 26561
METEOR-M2 2             
1 44387U 19038A   26062.52301017  .00000106  00000+0  65575-4 0  9990
2 44387  98.9071  48.2893 0001245  14.9070 345.2144 14.24330730346259
ARKTIKA-M 1             
1 47719U 21016A   26061.82287547 -.00000108  00000+0  00000+0 0  9994
2 47719  63.2036  72.8571 7242814 269.4536  15.2019  2.00620868 36653
FENGYUN 3E              
1 49008U 21062A   26062.50091745  .00000196  00000+0  11306-3 0  9998
2 49008  98.7505  67.0837 0002481  52.7250 307.4152 14.19893192241583
GOES 18                 
1 51850U 22021A   26062.44905834  .00000082  00000+0  00000+0 0  9997
2 51850   0.0277  75.5670 0000593 317.9827 152.3064  1.00271586  5535
NOAA 21 (JPSS-2)        
1 54234U 22150A   26062.44901596  .00000123  00000+0  79371-4 0  9998
2 54234  98.7548   2.7866 0002506 117.6644 242.4786 14.19550234171547
METEOSAT-12 (MTG-I1)    
1 54743U 22170C   26062.38239039 -.00000021  00000+0  00000+0 0  9990
2 54743   0.7444  28.9992 0001891 281.9468 347.5747  1.00274710 11911
TIANMU-1 03             
1 55973U 23039A   26062.52837103  .00020579  00000+0  45402-3 0  9991
2 55973  97.5164 232.6402 0003956 118.9008 241.2637 15.43918905164519
TIANMU-1 04             
1 55974U 23039B   26062.48866359  .00021918  00000+0  47680-3 0  9990
2 55974  97.5096 231.7613 0004620 115.4554 244.7173 15.44321070164510
TIANMU-1 05             
1 55975U 23039C   26062.50472020  .00021340  00000+0  47168-3 0  9992
2 55975  97.5143 232.2695 0003715 136.4637 223.6905 15.43858713164493
TIANMU-1 06             
1 55976U 23039D   26062.48858590  .00022081  00000+0  47987-3 0  9992
2 55976  97.5153 232.7876 0004021 131.9802 228.1789 15.44351572164511
FENGYUN 3G              
1 56232U 23055A   26062.52645999  .00037166  00000+0  56353-3 0  9995
2 56232  49.9932 170.8246 0010712 345.7650  14.3014 15.54147439163584
METEOR-M2 3             
1 57166U 23091A   26062.49394648  .00000025  00000+0  29523-4 0  9994
2 57166  98.6228 119.5706 0005032 113.3035 246.8674 14.24036909139476
TIANMU-1 07             
1 57399U 23101A   26062.49885125  .00008942  00000+0  31807-3 0  9992
2 57399  97.2738 115.5856 0004776 145.8682 214.2867 15.29193606145495
TIANMU-1 08             
1 57400U 23101B   26061.81455363  .00000469  00000+0  19083-4 0  9996
2 57400  97.2730 114.6953 0006290 145.3494 214.8157 15.29213455145388
TIANMU-1 09             
1 57401U 23101C   26060.81433519  .00000691  00000+0  26964-4 0  9998
2 57401  97.2691 113.1975 0005114 156.2312 203.9165 15.29179768145237
