[{"OBJECT_NAME":"METOP-C","OBJECT_ID":"2018-087A","EPOCH":"2026-03-03T09:59:04.597152","MEAN_MOTION":14.21494528,"ECCENTRICITY":0.0002161,"INCLINATION":98.6779,"RA_OF_ASC_NODE":123.8951,"ARG_OF_PERICENTER":108.6534,"MEAN_ANOMALY":251.4878,"EPHEMERIS_TYPE":0,"CLASSIFICATION_TYPE":"U","NORAD_CAT_ID":43689,"ELEMENT_SET_NO":999,"REV_AT_EPOCH":37980,"BSTAR":8.6979e-5,"MEAN_MOTION_DOT":1.47e-6,"MEAN_MOTION_DDOT":0},{"OBJECT_NAME":"GEO-KOMPSAT-2A","OBJECT_ID":"2018-100A","EPOCH":"2026-03-02T23:16:55.190208","MEAN_MOTION":1.0027212,"ECCENTRICITY":0.0001474,"INCLINATION":0.0202,"RA_OF_ASC_NODE":70.022,"ARG_OF_PERICENTER":329.8478,"MEAN_ANOMALY":238.343,"EPHEMERIS_TYPE":0,"CLASSIFICATION_TYPE":"U","NORAD_CAT_ID":43823,"ELEMENT_SET_NO":999,"REV_AT_EPOCH":2656,"BSTAR":0,"MEAN_MOTION_DOT":-3.6e-6,"MEAN_MOTION_DDOT":0},{"OBJECT_NAME":"METEOR-M2 2","OBJECT_ID":"2019-038A","EPOCH":"2026-03-03T12:33:08.078688","MEAN_MOTION":14.2433073,"ECCENTRICITY":0.0001245,"INCLINATION":98.9071,"RA_OF_ASC_NODE":48.2893,"ARG_OF_PERICENTER":14.907,"MEAN_ANOMALY":345.2144,"EPHEMERIS_TYPE":0,"CLASSIFICATION_TYPE":"U","NORAD_CAT_ID":44387,"ELEMENT_SET_NO":999,"REV_AT_EPOCH":34625,"BSTAR":6.5575e-5,"MEAN_MOTION_DOT":1.06e-6,"MEAN_MOTION_DDOT":0},{"OBJECT_NAME":"ARKTIKA-M 1","OBJECT_ID":"2021-016A","EPOCH":"2026-03-02T19:44:56.440608","MEAN_MOTION":2.00620868,"ECCENTRICITY":0.72428147,"INCLINATION":63.2036,"RA_OF_ASC_NODE":72.8571,"ARG_OF_PERICENTER":269.4536,"MEAN_ANOMALY":15.2019,"EPHEMERIS_TYPE":0,"CLASSIFICATION_TYPE":"U","NORAD_CAT_ID":47719,"ELEMENT_SET_NO":999,"REV_AT_EPOCH":3665,"BSTAR":0,"MEAN_MOTION_DOT":-1.08e-6,"MEAN_MOTION_DDOT":0},{"OBJECT_NAME":"FENGYUN 3E","OBJECT_ID":"2021-062A","EPOCH":"2026-03-03T12:01:19.267680","MEAN_MOTION":14.19893192,"ECCENTRICITY":0.0002481,"INCLINATION":98.7505,"RA_OF_ASC_NODE":67.0837,"ARG_OF_PERICENTER":52.725,"MEAN_ANOMALY":307.4152,"EPHEMERIS_TYPE":0,"CLASSIFICATION_TYPE":"U","NORAD_CAT_ID":49008,"ELEMENT_SET_NO":999,"REV_AT_EPOCH":24158,"BSTAR":0.00011306,"MEAN_MOTION_DOT":1.96e-6,"MEAN_MOTION_DDOT":0},{"OBJECT_NAME":"GOES 18","OBJECT_ID":"2022-021A","EPOCH":"2026-03-03T10:46:38.640576","MEAN_MOTION":1.00271586,"ECCENTRICITY":5.93e-5,"INCLINATION":0.0277,"RA_OF_ASC_NODE":75.567,"ARG_OF_PERICENTER":317.9827,"MEAN_ANOMALY":152.3064,"EPHEMERIS_TYPE":0,"CLASSIFICATION_TYPE":"U","NORAD_CAT_ID":51850,"ELEMENT_SET_NO":999,"REV_AT_EPOCH":553,"BSTAR":0,"MEAN_MOTION_DOT":8.2e-7,"MEAN_MOTION_DDOT":0},{"OBJECT_NAME":"NOAA 21 (JPSS-2)","OBJECT_ID":"2022-150A","EPOCH":"2026-03-03T10:46:34.978944","MEAN_MOTION":14.19550234,"ECCENTRICITY":0.0002506,"INCLINATION":98.7548,"RA_OF_ASC_NODE":2.7866,"ARG_OF_PERICENTER":117.6644,"MEAN_ANOMALY":242.4786,"EPHEMERIS_TYPE":0,"CLASSIFICATION_TYPE":"U","NORAD_CAT_ID":54234,"ELEMENT_SET_NO":999,"REV_AT_EPOCH":17154,"BSTAR":7.9371e-5,"MEAN_MOTION_DOT":1.23e-6,"MEAN_MOTION_DDOT":0},{"OBJECT_NAME":"METEOSAT-12 (MTG-I1)","OBJECT_ID":"2022-170C","EPOCH":"2026-03-03T09:10:38.529696","MEAN_MOTION":1.0027471,"ECCENTRICITY":0.0001891,"INCLINATION":0.7444,"RA_OF_ASC_NODE":28.9992,"ARG_OF_PERICENTER":281.9468,"MEAN_ANOMALY":347.5747,"EPHEMERIS_TYPE":0,"CLASSIFICATION_TYPE":"U","NORAD_CAT_ID":54743,"ELEMENT_SET_NO":999,"REV_AT_EPOCH":1191,"BSTAR":0,"MEAN_MOTION_DOT":-2.1e-7,"MEAN_MOTION_DDOT":0},{"OBJECT_NAME":"TIANMU-1 03","OBJECT_ID":"2023-039A","EPOCH":"2026-03-03T12:40:51.256992","MEAN_MOTION":15.43918905,"ECCENTRICITY":0.0003956,"INCLINATION":97.5164,"RA_OF_ASC_NODE":232.6402,"ARG_OF_PERICENTER":118.9008,"MEAN_ANOMALY":241.2637,"EPHEMERIS_TYPE":0,"CLASSIFICATION_TYPE":"U","NORAD_CAT_ID":55973,"ELEMENT_SET_NO":999,"REV_AT_EPOCH":16451,"BSTAR":0.00045402,"MEAN_MOTION_DOT":0.00020579,"MEAN_MOTION_DDOT":0},{"OBJECT_NAME":"TIANMU-1 04","OBJECT_ID":"2023-039B","EPOCH":"2026-03-03T11:43:40.534176","MEAN_MOTION":15.4432107,"ECCENTRICITY":0.000462,"INCLINATION":97.5096,"RA_OF_ASC_NODE":231.7613,"ARG_OF_PERICENTER":115.4554,"MEAN_ANOMALY":244.7173,"EPHEMERIS_TYPE":0,"CLASSIFICATION_TYPE":"U","NORAD_CAT_ID":55974,"ELEMENT_SET_NO":999,"REV_AT_EPOCH":16451,"BSTAR":0.0004768,"MEAN_MOTION_DOT":0.00021918,"MEAN_MOTION_DDOT":0},{"OBJECT_NAME":"TIANMU-1 05","OBJECT_ID":"2023-039C","EPOCH":"2026-03-03T12:06:47.825280","MEAN_MOTION":15.43858713,"ECCENTRICITY":0.0003715,"INCLINATION":97.5143,"RA_OF_ASC_NODE":232.2695,"ARG_OF_PERICENTER":136.4637,"MEAN_ANOMALY":223.6905,"EPHEMERIS_TYPE":0,"CLASSIFICATION_TYPE":"U","NORAD_CAT_ID":55975,"ELEMENT_SET_NO":999,"REV_AT_EPOCH":16449,"BSTAR":0.00047168,"MEAN_MOTION_DOT":0.0002134,"MEAN_MOTION_DDOT":0},{"OBJECT_NAME":"TIANMU-1 06","OBJECT_ID":"2023-039D","EPOCH":"2026-03-03T11:43:33.821760","MEAN_MOTION":15.44351572,"ECCENTRICITY":0.0004021,"INCLINATION":97.5153,"RA_OF_ASC_NODE":232.7876,"ARG_OF_PERICENTER":131.9802,"MEAN_ANOMALY":228.1789,"EPHEMERIS_TYPE":0,"CLASSIFICATION_TYPE":"U","NORAD_CAT_ID":55976,"ELEMENT_SET_NO":999,"REV_AT_EPOCH":16451,"BSTAR":0.00047987,"MEAN_MOTION_DOT":0.00022081,"MEAN_MOTION_DDOT":0},{"OBJECT_NAME":"FENGYUN 3G","OBJECT_ID":"2023-055A","EPOCH":"2026-03-03T12:38:06.143136","MEAN_MOTION":15.54147439,"ECCENTRICITY":0.0010712,"INCLINATION":49.9932,"RA_OF_ASC_NODE":170.8246,"ARG_OF_PERICENTER":345.765,"MEAN_ANOMALY":14.3014,"EPHEMERIS_TYPE":0,"CLASSIFICATION_TYPE":"U","NORAD_CAT_ID":56232,"ELEMENT_SET_NO":999,"REV_AT_EPOCH":16358,"BSTAR":0.00056353,"MEAN_MOTION_DOT":0.00037166,"MEAN_MOTION_DDOT":0},{"OBJECT_NAME":"METEOR-M2 3","OBJECT_ID":"2023-091A","EPOCH":"2026-03-03T11:51:16.975872","MEAN_MOTION":14.24036909,"ECCENTRICITY":0.0005032,"INCLINATION":98.6228,"RA_OF_ASC_NODE":119.5706,"ARG_OF_PERICENTER":113.3035,"MEAN_ANOMALY":246.8674,"EPHEMERIS_TYPE":0,"CLASSIFICATION_TYPE":"U","NORAD_CAT_ID":57166,"ELEMENT_SET_NO":999,"REV_AT_EPOCH":13947,"BSTAR":2.9523e-5,"MEAN_MOTION_DOT":2.5e-7,"MEAN_MOTION_DDOT":0},{"OBJECT_NAME":"TIANMU-1 07","OBJECT_ID":"2023-101A","EPOCH":"2026-03-03T11:58:20.748000","MEAN_MOTION":15.29193606,"ECCENTRICITY":0.0004776,"INCLINATION":97.2738,"RA_OF_ASC_NODE":115.5856,"ARG_OF_PERICENTER":145.8682,"MEAN_ANOMALY":214.2867,"EPHEMERIS_TYPE":0,"CLASSIFICATION_TYPE":"U","NORAD_CAT_ID":57399,"ELEMENT_SET_NO":999,"REV_AT_EPOCH":14549,"BSTAR":0.00031807,"MEAN_MOTION_DOT":8.942e-5,"MEAN_MOTION_DDOT":0},{"OBJECT_NAME":"TIANMU-1 08","OBJECT_ID":"2023-101B","EPOCH":"2026-03-02T19:32:57.433632","MEAN_MOTION":15.29213455,"ECCENTRICITY":0.00062904,"INCLINATION":97.273,"RA_OF_ASC_NODE":114.6953,"ARG_OF_PERICENTER":145.3494,"MEAN_ANOMALY":214.8157,"EPHEMERIS_TYPE":0,"CLASSIFICATION_TYPE":"U","NORAD_CAT_ID":57400,"ELEMENT_SET_NO":999,"REV_AT_EPOCH":14538,"BSTAR":1.9083121e-5,"MEAN_MOTION_DOT":4.69e-6,"MEAN_MOTION_DDOT":0},{"OBJECT_NAME":"TIANMU-1 09","OBJECT_ID":"2023-101C","EPOCH":"2026-03-01T19:32:38.560416","MEAN_MOTION":15.29179768,"ECCENTRICITY":0.00051148,"INCLINATION":97.2691,"RA_OF_ASC_NODE":113.1975,"ARG_OF_PERICENTER":156.2312,"MEAN_ANOMALY":203.9165,"EPHEMERIS_TYPE":0,"CLASSIFICATION_TYPE":"U","NORAD_CAT_ID":57401,"ELEMENT_SET_NO":999,"REV_AT_EPOCH":14523,"BSTAR":2.6964044e-5,"MEAN_MOTION_DOT":6.91e-6,"MEAN_MOTION_DDOT":0}]
